IRIDIUM 173             
1 43925U 19002D   26064.85952218  .00000221  00000+0  71937-4 0  9998
2 43925  86.3965  36.7334 0002123  82.8713 277.2724 14.34217322374144
IRIDIUM 169             
1 43926U 19002E   26064.61414630  .00000207  00000+0  61114-4 0  9994
2 43926  86.4168  68.4928 0001521  77.3548 282.7820 14.38610857375332
IRIDIUM 172             
1 43927U 19002F   26064.85318133  .00000098  00000+0  27821-4 0  9997
2 43927  86.3966  36.7436 0002358  86.0557 274.0909 14.34218292374150
IRIDIUM 175             
1 43928U 19002G   26064.70754255  .00000741  00000+0  11359-3 0  9994
2 43928  86.1536 334.5482 0002356 110.3861 249.7609 14.72249685384013
IRIDIUM 171             
1 43929U 19002H   26064.41554299 -.00000004  00000+0 -85232-5 0  9996
2 43929  86.3970  37.2220 0001967  91.6685 268.4736 14.34217398374086
IRIDIUM 170             
1 43930U 19002J   26064.85425424  .00001774  00000+0  27744-3 0  9998
2 43930  86.6086  36.7291 0002718  90.1050 270.0479 14.72252439384054
IRIDIUM 167             
1 43931U 19002K   26064.40919976 -.00000025  00000+0 -16132-4 0  9990
2 43931  86.3962  36.9513 0001748  91.2224 268.9172 14.34217409374085
IRIDIUM 181             
1 56726U 23068S   26064.59766739  .00000445  00000+0  12630-3 0  9992
2 56726  86.4458 100.1117 0002618  97.3562 262.7937 14.43315916147491
IRIDIUM 177             
1 56727U 23068T   26064.82449256  .00002137  00000+0  27767-3 0  9998
2 56727  86.1998  17.8566 0002345  80.9349 279.2137 14.80248611151070
IRIDIUM 174             
1 56728U 23068U   26064.43409096  .00001457  00000+0  22711-3 0  9992
2 56728  86.6107  37.0407 0003258  76.5111 283.6469 14.72254634150752
IRIDIUM 178             
1 56729U 23068V   26064.54321122  .00000731  00000+0  92781-4 0  9997
2 56729  86.6483  68.6732 0002364 100.7997 259.3490 14.80232056151039
IRIDIUM 179             
1 56730U 23068W   26064.53784167  .00000960  00000+0  12296-3 0  9996
2 56730  86.6714  77.3547 0002193  94.2333 265.9140 14.80233775151034
